[{"OBJECT_NAME":"QIANFAN-52","OBJECT_ID":"2024-232S","EPOCH":"2026-03-07T14:33:09.972288","MEAN_MOTION":13.51001156,"ECCENTRICITY":0.00139388,"INCLINATION":89.0058,"RA_OF_ASC_NODE":32.5414,"ARG_OF_PERICENTER":313.5764,"MEAN_ANOMALY":46.4229,"EPHEMERIS_TYPE":0,"CLASSIFICATION_TYPE":"U","NORAD_CAT_ID":62253,"ELEMENT_SET_NO":999,"REV_AT_EPOCH":7940,"BSTAR":0.00014041385,"MEAN_MOTION_DOT":1.03e-6,"MEAN_MOTION_DDOT":0},{"OBJECT_NAME":"QIANFAN-53","OBJECT_ID":"2024-232T","EPOCH":"2026-03-07T14:03:29.475648","MEAN_MOTION":13.51003795,"ECCENTRICITY":0.00128632,"INCLINATION":89.0065,"RA_OF_ASC_NODE":32.6542,"ARG_OF_PERICENTER":315.474,"MEAN_ANOMALY":44.5377,"EPHEMERIS_TYPE":0,"CLASSIFICATION_TYPE":"U","NORAD_CAT_ID":62254,"ELEMENT_SET_NO":999,"REV_AT_EPOCH":7936,"BSTAR":0.00010346269,"MEAN_MOTION_DOT":7.9e-7,"MEAN_MOTION_DDOT":0},{"OBJECT_NAME":"QIANFAN-54","OBJECT_ID":"2024-232U","EPOCH":"2026-03-07T13:16:08.592672","MEAN_MOTION":13.5100333,"ECCENTRICITY":0.00029734,"INCLINATION":89.0057,"RA_OF_ASC_NODE":32.3286,"ARG_OF_PERICENTER":36.2287,"MEAN_ANOMALY":323.9066,"EPHEMERIS_TYPE":0,"CLASSIFICATION_TYPE":"U","NORAD_CAT_ID":62255,"ELEMENT_SET_NO":999,"REV_AT_EPOCH":11086,"BSTAR":0.00015630188,"MEAN_MOTION_DOT":1.13e-6,"MEAN_MOTION_DDOT":0},{"OBJECT_NAME":"QIANFAN-55","OBJECT_ID":"2025-016A","EPOCH":"2026-03-07T13:53:40.445376","MEAN_MOTION":13.5099642,"ECCENTRICITY":0.00194651,"INCLINATION":88.9691,"RA_OF_ASC_NODE":94.4312,"ARG_OF_PERICENTER":102.6411,"MEAN_ANOMALY":257.6918,"EPHEMERIS_TYPE":0,"CLASSIFICATION_TYPE":"U","NORAD_CAT_ID":62785,"ELEMENT_SET_NO":999,"REV_AT_EPOCH":5864,"BSTAR":4.6299186e-5,"MEAN_MOTION_DOT":4.2e-7,"MEAN_MOTION_DDOT":0},{"OBJECT_NAME":"QIANFAN-56","OBJECT_ID":"2025-016B","EPOCH":"2026-03-07T14:17:14.724384","MEAN_MOTION":13.50998298,"ECCENTRICITY":0.0018103,"INCLINATION":88.9664,"RA_OF_ASC_NODE":94.2431,"ARG_OF_PERICENTER":104.6379,"MEAN_ANOMALY":255.6781,"EPHEMERIS_TYPE":0,"CLASSIFICATION_TYPE":"U","NORAD_CAT_ID":62786,"ELEMENT_SET_NO":999,"REV_AT_EPOCH":5869,"BSTAR":2.7461339e-5,"MEAN_MOTION_DOT":3.0e-7,"MEAN_MOTION_DDOT":0},{"OBJECT_NAME":"QIANFAN-57","OBJECT_ID":"2025-016C","EPOCH":"2026-03-07T15:04:43.938048","MEAN_MOTION":13.50997261,"ECCENTRICITY":0.00013833,"INCLINATION":88.9695,"RA_OF_ASC_NODE":94.4195,"ARG_OF_PERICENTER":101.5642,"MEAN_ANOMALY":258.5664,"EPHEMERIS_TYPE":0,"CLASSIFICATION_TYPE":"U","NORAD_CAT_ID":62787,"ELEMENT_SET_NO":999,"REV_AT_EPOCH":5866,"BSTAR":4.7754142e-5,"MEAN_MOTION_DOT":4.3e-7,"MEAN_MOTION_DDOT":0},{"OBJECT_NAME":"QIANFAN-58","OBJECT_ID":"2025-016D","EPOCH":"2026-03-07T14:23:09.815424","MEAN_MOTION":13.50998841,"ECCENTRICITY":0.00160342,"INCLINATION":88.9665,"RA_OF_ASC_NODE":94.2279,"ARG_OF_PERICENTER":97.8682,"MEAN_ANOMALY":262.429,"EPHEMERIS_TYPE":0,"CLASSIFICATION_TYPE":"U","NORAD_CAT_ID":62788,"ELEMENT_SET_NO":999,"REV_AT_EPOCH":5870,"BSTAR":3.2571396e-5,"MEAN_MOTION_DOT":3.3e-7,"MEAN_MOTION_DDOT":0},{"OBJECT_NAME":"QIANFAN-59","OBJECT_ID":"2025-016E","EPOCH":"2026-03-07T02:32:22.900704","MEAN_MOTION":13.50994722,"ECCENTRICITY":0.00163884,"INCLINATION":88.9688,"RA_OF_ASC_NODE":94.3732,"ARG_OF_PERICENTER":102.4281,"MEAN_ANOMALY":257.8705,"EPHEMERIS_TYPE":0,"CLASSIFICATION_TYPE":"U","NORAD_CAT_ID":62789,"ELEMENT_SET_NO":999,"REV_AT_EPOCH":5863,"BSTAR":6.7962001e-5,"MEAN_MOTION_DOT":5.6e-7,"MEAN_MOTION_DDOT":0},{"OBJECT_NAME":"QIANFAN-60","OBJECT_ID":"2025-016F","EPOCH":"2026-03-07T13:59:41.468640","MEAN_MOTION":13.51009424,"ECCENTRICITY":0.0017951,"INCLINATION":88.967,"RA_OF_ASC_NODE":94.2788,"ARG_OF_PERICENTER":98.1633,"MEAN_ANOMALY":262.1555,"EPHEMERIS_TYPE":0,"CLASSIFICATION_TYPE":"U","NORAD_CAT_ID":62790,"ELEMENT_SET_NO":999,"REV_AT_EPOCH":5868,"BSTAR":3.7222771e-5,"MEAN_MOTION_DOT":3.6e-7,"MEAN_MOTION_DDOT":0},{"OBJECT_NAME":"QIANFAN-61","OBJECT_ID":"2025-016G","EPOCH":"2026-03-05T23:39:19.133568","MEAN_MOTION":13.46909473,"ECCENTRICITY":0.00151833,"INCLINATION":88.9744,"RA_OF_ASC_NODE":94.6579,"ARG_OF_PERICENTER":117.5402,"MEAN_ANOMALY":242.7291,"EPHEMERIS_TYPE":0,"CLASSIFICATION_TYPE":"U","NORAD_CAT_ID":62791,"ELEMENT_SET_NO":999,"REV_AT_EPOCH":5848,"BSTAR":-3.090309,"MEAN_MOTION_DOT":-0.01754025,"MEAN_MOTION_DDOT":0},{"OBJECT_NAME":"QIANFAN-62","OBJECT_ID":"2025-016H","EPOCH":"2026-03-07T14:52:56.004960","MEAN_MOTION":13.50996678,"ECCENTRICITY":0.00182572,"INCLINATION":88.9683,"RA_OF_ASC_NODE":94.3182,"ARG_OF_PERICENTER":97.8477,"MEAN_ANOMALY":262.4747,"EPHEMERIS_TYPE":0,"CLASSIFICATION_TYPE":"U","NORAD_CAT_ID":62792,"ELEMENT_SET_NO":999,"REV_AT_EPOCH":5869,"BSTAR":3.9701549e-5,"MEAN_MOTION_DOT":3.8e-7,"MEAN_MOTION_DDOT":0},{"OBJECT_NAME":"QIANFAN-63","OBJECT_ID":"2025-016J","EPOCH":"2026-03-07T13:41:53.087712","MEAN_MOTION":13.50995304,"ECCENTRICITY":0.00183053,"INCLINATION":88.969,"RA_OF_ASC_NODE":94.2805,"ARG_OF_PERICENTER":102.72,"MEAN_ANOMALY":257.5999,"EPHEMERIS_TYPE":0,"CLASSIFICATION_TYPE":"U","NORAD_CAT_ID":62793,"ELEMENT_SET_NO":999,"REV_AT_EPOCH":5872,"BSTAR":2.6678196e-5,"MEAN_MOTION_DOT":2.9e-7,"MEAN_MOTION_DDOT":0},{"OBJECT_NAME":"QIANFAN-64","OBJECT_ID":"2025-016K","EPOCH":"2026-03-07T14:41:08.795904","MEAN_MOTION":13.5100569,"ECCENTRICITY":0.00162486,"INCLINATION":88.9676,"RA_OF_ASC_NODE":94.2388,"ARG_OF_PERICENTER":96.3597,"MEAN_ANOMALY":263.9405,"EPHEMERIS_TYPE":0,"CLASSIFICATION_TYPE":"U","NORAD_CAT_ID":62794,"ELEMENT_SET_NO":999,"REV_AT_EPOCH":5872,"BSTAR":4.6260282e-5,"MEAN_MOTION_DOT":4.2e-7,"MEAN_MOTION_DDOT":0},{"OBJECT_NAME":"QIANFAN-65","OBJECT_ID":"2025-016L","EPOCH":"2026-03-07T14:35:04.822080","MEAN_MOTION":13.51008866,"ECCENTRICITY":0.00160951,"INCLINATION":88.9673,"RA_OF_ASC_NODE":94.2623,"ARG_OF_PERICENTER":97.8351,"MEAN_ANOMALY":262.4628,"EPHEMERIS_TYPE":0,"CLASSIFICATION_TYPE":"U","NORAD_CAT_ID":62795,"ELEMENT_SET_NO":999,"REV_AT_EPOCH":5870,"BSTAR":2.7870622e-5,"MEAN_MOTION_DOT":3.0e-7,"MEAN_MOTION_DDOT":0},{"OBJECT_NAME":"QIANFAN-66","OBJECT_ID":"2025-016M","EPOCH":"2026-03-07T15:16:35.198400","MEAN_MOTION":13.50996981,"ECCENTRICITY":0.00172009,"INCLINATION":88.9693,"RA_OF_ASC_NODE":94.2461,"ARG_OF_PERICENTER":93.9764,"MEAN_ANOMALY":266.3354,"EPHEMERIS_TYPE":0,"CLASSIFICATION_TYPE":"U","NORAD_CAT_ID":62796,"ELEMENT_SET_NO":999,"REV_AT_EPOCH":5875,"BSTAR":1.2634985e-5,"MEAN_MOTION_DOT":2.0e-7,"MEAN_MOTION_DDOT":0},{"OBJECT_NAME":"QIANFAN-67","OBJECT_ID":"2025-016N","EPOCH":"2026-03-07T15:22:26.255424","MEAN_MOTION":13.50995336,"ECCENTRICITY":0.00171676,"INCLINATION":88.9683,"RA_OF_ASC_NODE":94.2629,"ARG_OF_PERICENTER":100.0109,"MEAN_ANOMALY":260.298,"EPHEMERIS_TYPE":0,"CLASSIFICATION_TYPE":"U","NORAD_CAT_ID":62797,"ELEMENT_SET_NO":999,"REV_AT_EPOCH":5872,"BSTAR":6.13452e-6,"MEAN_MOTION_DOT":1.6e-7,"MEAN_MOTION_DDOT":0},{"OBJECT_NAME":"QIANFAN-68","OBJECT_ID":"2025-016P","EPOCH":"2026-03-07T15:10:46.086240","MEAN_MOTION":13.5100534,"ECCENTRICITY":0.00172279,"INCLINATION":88.9686,"RA_OF_ASC_NODE":94.312,"ARG_OF_PERICENTER":98.4831,"MEAN_ANOMALY":261.8273,"EPHEMERIS_TYPE":0,"CLASSIFICATION_TYPE":"U","NORAD_CAT_ID":62798,"ELEMENT_SET_NO":999,"REV_AT_EPOCH":5870,"BSTAR":2.0988935e-5,"MEAN_MOTION_DOT":2.6e-7,"MEAN_MOTION_DDOT":0}]
