QIANFAN-52              
1 62253U 24232S   26066.60636542  .00000103  00000+0  14041-3 0  9999
2 62253  89.0058  32.5414 0013938 313.5764  46.4229 13.51001156 79402
QIANFAN-53              
1 62254U 24232T   26066.58575782  .00000079  00000+0  10346-3 0  9991
2 62254  89.0065  32.6542 0012863 315.4740  44.5377 13.51003795 79364
QIANFAN-54              
1 62255U 24232U   26066.55287723  .00000113  00000+0  15630-3 0  9994
2 62255  89.0057  32.3286 0002973  36.2287 323.9066 13.51003330110868
QIANFAN-55              
1 62785U 25016A   26066.57894034  .00000042  00000+0  46299-4 0  9991
2 62785  88.9691  94.4312 0019465 102.6411 257.6918 13.50996420 58644
QIANFAN-56              
1 62786U 25016B   26066.59530931  .00000030  00000+0  27461-4 0  9994
2 62786  88.9664  94.2431 0018103 104.6379 255.6781 13.50998298 58694
QIANFAN-57              
1 62787U 25016C   26066.62828632  .00000043  00000+0  47754-4 0  9998
2 62787  88.9695  94.4195 0001383 101.5642 258.5664 13.50997261 58667
QIANFAN-58              
1 62788U 25016D   26066.59941916  .00000033  00000+0  32571-4 0  9996
2 62788  88.9665  94.2279 0016034  97.8682 262.4290 13.50998841 58705
QIANFAN-59              
1 62789U 25016E   26066.10582061  .00000056  00000+0  67962-4 0  9993
2 62789  88.9688  94.3732 0016388 102.4281 257.8705 13.50994722 58631
QIANFAN-60              
1 62790U 25016F   26066.58311885  .00000036  00000+0  37223-4 0  9996
2 62790  88.9670  94.2788 0017951  98.1633 262.1555 13.51009424 58687
QIANFAN-61              
1 62791U 25016G   26064.98563812 -.01754025  00000+0 -30903+1 0  9999
2 62791  88.9744  94.6579 0015183 117.5402 242.7291 13.46909473 58483
QIANFAN-62              
1 62792U 25016H   26066.62009265  .00000038  00000+0  39702-4 0  9995
2 62792  88.9683  94.3182 0018257  97.8477 262.4747 13.50996678 58696
QIANFAN-63              
1 62793U 25016J   26066.57075333  .00000029  00000+0  26678-4 0  9997
2 62793  88.9690  94.2805 0018305 102.7200 257.5999 13.50995304 58723
QIANFAN-64              
1 62794U 25016K   26066.61190736  .00000042  00000+0  46260-4 0  9992
2 62794  88.9676  94.2388 0016248  96.3597 263.9405 13.51005690 58729
QIANFAN-65              
1 62795U 25016L   26066.60769470  .00000030  00000+0  27871-4 0  9993
2 62795  88.9673  94.2623 0016095  97.8351 262.4628 13.51008866 58700
QIANFAN-66              
1 62796U 25016M   26066.63651850  .00000020  00000+0  12635-4 0  9990
2 62796  88.9693  94.2461 0017200  93.9764 266.3354 13.50996981 58754
QIANFAN-67              
1 62797U 25016N   26066.64058166  .00000016  00000+0  61345-5 0  9991
2 62797  88.9683  94.2629 0017167 100.0109 260.2980 13.50995336 58723
QIANFAN-68              
1 62798U 25016P   26066.63247785  .00000026  00000+0  20989-4 0  9997
2 62798  88.9686  94.3120 0017227  98.4831 261.8273 13.51005340 58701
